[{"OBJECT_NAME":"STARLINK-32878","OBJECT_ID":"2025-024P","EPOCH":"2026-03-09T02:18:13.586976","MEAN_MOTION":15.27569647,"ECCENTRICITY":0.00027164,"INCLINATION":43.0033,"RA_OF_ASC_NODE":328.8511,"ARG_OF_PERICENTER":258.6168,"MEAN_ANOMALY":101.4379,"EPHEMERIS_TYPE":0,"CLASSIFICATION_TYPE":"U","NORAD_CAT_ID":62892,"ELEMENT_SET_NO":999,"REV_AT_EPOCH":6217,"BSTAR":0.00015335677,"MEAN_MOTION_DOT":3.959e-5,"MEAN_MOTION_DDOT":0},{"OBJECT_NAME":"CZ-4C R\/B","OBJECT_ID":"2022-039B","EPOCH":"2026-03-09T15:51:32.485824","MEAN_MOTION":15.03008334,"ECCENTRICITY":0.0113659,"INCLINATION":98.2525,"RA_OF_ASC_NODE":105.9247,"ARG_OF_PERICENTER":45.8852,"MEAN_ANOMALY":315.1654,"EPHEMERIS_TYPE":0,"CLASSIFICATION_TYPE":"U","NORAD_CAT_ID":52258,"ELEMENT_SET_NO":999,"REV_AT_EPOCH":21291,"BSTAR":0.00022979194,"MEAN_MOTION_DOT":3.483e-5,"MEAN_MOTION_DDOT":0}]
